NORAD_CAT_ID,OBJECT_NAME,OBJECT_TYPE,EPOCH,MEAN_MOTION,ECCENTRICITY,INCLINATION,RA_OF_ASC_NODE,ARG_OF_PERICENTER,MEAN_ANOMALY,BSTAR,MEAN_MOTION_DOT,MEAN_MOTION_DDOT,TLE_LINE0,TLE_LINE1,TLE_LINE2,SEMIMAJOR_AXIS,PERIOD,APOGEE,PERIGEE,DECAYED
52875.0,STARLINK-4193,PAYLOAD,2023-03-29 16:22:02,15.08860673,0.0001463,53.2149,164.5041,98.8397,261.2761,0.00062605,9.695e-05,0.0,0 STARLINK-4193,1 52875U 22062AX  23088.68197470  .00009695  00000-0  62605-3 0  9993,2 52875  53.2149 164.5041 0001463  98.8397 261.2761 15.08860673 43626,6917.817,95.436,540.694,538.67,0.0
52875.0,STARLINK-4193,PAYLOAD,2023-03-30 05:05:08,15.08831478,0.0001399,53.2159,162.1304,73.7734,286.3412,-4.8548e-05,-1.06e-05,0.0,0 STARLINK-4193,1 52875U 22062AX  23089.21190494 -.00001060  00000-0 -48548-4 0  9993,2 52875  53.2159 162.1304 0001399  73.7734 286.3412 15.08831478 44193,6917.906,95.438,540.739,538.804,0.0
52875.0,STARLINK-4193,PAYLOAD,2023-03-30 11:26:40,15.08844016,0.0001258,53.2148,160.9402,89.1015,271.0122,0.00025893,3.836e-05,0.0,0 STARLINK-4193,1 52875U 22062AX  23089.47686163  .00003836  00000-0  25893-3 0  9992,2 52875  53.2148 160.9402 0001258  89.1015 271.0122 15.08844016 44239,6917.868,95.437,540.603,538.863,0.0
52875.0,STARLINK-4193,PAYLOAD,2023-03-30 16:12:50,15.08854118,0.0001383,53.216,160.0457,100.8571,259.2577,0.00081591,0.00012726,0.0,0 STARLINK-4193,1 52875U 22062AX  23089.67557947  .00012726  00000-0  81591-3 0  9996,2 52875  53.2160 160.0457 0001383 100.8571 259.2577 15.08854118 43775,6917.837,95.437,540.659,538.745,0.0
52875.0,STARLINK-4193,PAYLOAD,2023-03-31 04:55:55,15.08837041,0.0001254,53.2158,157.6669,96.0999,264.0135,0.00065487,0.00010149,0.0,0 STARLINK-4193,1 52875U 22062AX  23090.20550547  .00010149  00000-0  65487-3 0  9999,2 52875  53.2158 157.6669 0001254  96.0999 264.0135 15.08837041 44340,6917.889,95.438,540.622,538.887,0.0
52875.0,STARLINK-4193,PAYLOAD,2023-03-31 11:17:27,15.08869289,0.0001193,53.2156,156.4787,103.8264,256.2861,0.002685,0.00042737,0.0,0 STARLINK-4193,1 52875U 22062AX  23090.47046170  .00042737  00000-0  26850-2 0  9998,2 52875  53.2156 156.4787 0001193 103.8264 256.2861 15.08869289 44382,6917.791,95.436,540.481,538.831,0.0
52875.0,STARLINK-4193,PAYLOAD,2023-03-31 20:49:46,15.08859424,0.0001439,53.2169,154.6961,95.7924,264.3232,0.00087475,0.00013668,0.0,0 STARLINK-4193,1 52875U 22062AX  23090.86790087  .00013668  00000-0  87475-3 0  9996,2 52875  53.2169 154.6961 0001439  95.7924 264.3232 15.08859424 44444,6917.821,95.436,540.681,538.691,0.0
52875.0,STARLINK-4193,PAYLOAD,2023-04-01 04:46:42,15.08830275,0.0001187,53.2161,153.2076,101.6684,258.4442,0.00088617,0.0001384,0.0,0 STARLINK-4193,1 52875U 22062AX  23091.19910565  .00013840  00000-0  88617-3 0  9999,2 52875  53.2161 153.2076 0001187 101.6684 258.4442 15.08830275 44493,6917.91,95.438,540.596,538.954,0.0
52875.0,STARLINK-4193,PAYLOAD,2023-04-01 14:19:02,15.08814099,0.000111,53.2159,151.4246,91.3879,268.7241,0.0010588,0.00016591,0.0,0 STARLINK-4193,1 52875U 22062AX  23091.59655625  .00016591  00000-0  10588-2 0  9993,2 52875  53.2159 151.4246 0001110  91.3879 268.7241 15.08814099 44550,6917.96,95.439,540.592,539.057,0.0
52875.0,STARLINK-4193,PAYLOAD,2023-04-01 20:40:35,15.08823237,0.0001208,53.2157,150.2356,92.1417,267.9714,0.0015465,0.00024399,0.0,0 STARLINK-4193,1 52875U 22062AX  23091.86152021  .00024399  00000-0  15465-2 0  9999,2 52875  53.2157 150.2356 0001208  92.1417 267.9714 15.08823237 44103,6917.932,95.439,540.632,538.961,0.0
52875.0,STARLINK-4193,PAYLOAD,2023-04-02 12:34:26,15.08859662,0.0001056,53.2148,147.2607,84.0819,276.0293,0.0016346,0.00025836,0.0,0 STARLINK-4193,1 52875U 22062AX  23092.52391770  .00025836  00000-0  16346-2 0  9995,2 52875  53.2148 147.2607 0001056  84.0819 276.0293 15.08859662 44693,6917.82,95.436,540.416,538.955,0.0
52875.0,STARLINK-4193,PAYLOAD,2023-04-03 02:52:54,15.08856479,0.000136,53.2158,144.5879,70.7671,289.3469,0.0012123,0.00019067,0.0,0 STARLINK-4193,1 52875U 22062AX  23093.12007673  .00019067  00000-0  12123-2 0  9996,2 52875  53.2158 144.5879 0001360  70.7671 289.3469 15.08856479 44786,6917.83,95.437,540.636,538.754,0.0
52875.0,STARLINK-4193,PAYLOAD,2023-04-03 12:25:13,15.08853141,0.0001347,53.2154,142.7995,80.1272,279.9872,0.00035917,5.435e-05,0.0,0 STARLINK-4193,1 52875U 22062AX  23093.51751391  .00005435  00000-0  35917-3 0  9993,2 52875  53.2154 142.7995 0001347  80.1272 279.9872 15.08853141 44841,6917.84,95.437,540.637,538.773,0.0
52875.0,STARLINK-4193,PAYLOAD,2023-04-03 20:22:08,15.08852765,0.0001094,53.2147,141.3136,92.012,268.0997,0.00032436,4.88e-05,0.0,0 STARLINK-4193,1 52875U 22062AX  23093.84871108  .00004880  00000-0  32436-3 0  9994,2 52875  53.2147 141.3136 0001094  92.0120 268.0997 15.08852765 44408,6917.841,95.437,540.463,538.95,0.0
52875.0,STARLINK-4193,PAYLOAD,2023-04-04 04:19:04,15.08851228,0.0001298,53.2144,139.8273,87.8544,272.2596,0.00018718,2.693e-05,0.0,0 STARLINK-4193,1 52875U 22062AX  23094.17991056  .00002693  00000-0  18718-3 0  9993,2 52875  53.2144 139.8273 0001298  87.8544 272.2596 15.08851228 44941,6917.846,95.437,540.609,538.813,0.0
52875.0,STARLINK-4193,PAYLOAD,2023-04-04 10:40:36,15.08855016,0.0001364,53.2154,138.6388,83.0503,277.0644,0.00020852,3.034e-05,0.0,0 STARLINK-4193,1 52875U 22062AX  23094.44486775  .00003034  00000-0  20852-3 0  9992,2 52875  53.2154 138.6388 0001364  83.0503 277.0644 15.08855016 44499,6917.834,95.437,540.643,538.756,0.0
52875.0,STARLINK-4193,PAYLOAD,2023-04-05 02:34:28,15.08844621,0.0001547,53.2154,135.6657,77.7568,282.3598,5.0383e-05,5.14e-06,0.0,0 STARLINK-4193,1 52875U 22062AX  23095.10726999  .00000514  00000-0  50383-4 0  9994,2 52875  53.2154 135.6657 0001547  77.7568 282.3598 15.08844621 45082,6917.866,95.437,540.801,538.661,0.0
52875.0,STARLINK-4193,PAYLOAD,2023-04-05 08:56:00,15.08844991,0.0001336,53.2164,134.4727,88.5744,271.5401,1.9166e-05,1.7e-07,0.0,0 STARLINK-4193,1 52875U 22062AX  23095.37223032  .00000017  00000-0  19166-4 0  9995,2 52875  53.2164 134.4727 0001336  88.5744 271.5401 15.08844991 44633,6917.865,95.437,540.654,538.806,0.0
52875.0,STARLINK-4193,PAYLOAD,2023-04-05 20:03:42,15.08844189,0.0001312,53.2159,132.3913,86.9837,273.1306,1.5992e-05,-3.3e-07,0.0,0 STARLINK-4193,1 52875U 22062AX  23095.83591013 -.00000033  00000-0  15992-4 0  9995,2 52875  53.2159 132.3913 0001312  86.9837 273.1306 15.08844189 44709,6917.868,95.437,540.64,538.825,0.0
52875.0,STARLINK-4193,PAYLOAD,2023-04-06 08:46:47,15.08845341,0.0001334,53.2158,130.0126,95.6027,264.5118,8.4374e-05,1.055e-05,0.0,0 STARLINK-4193,1 52875U 22062AX  23096.36582896  .00001055  00000-0  84374-4 0  9997,2 52875  53.2158 130.0126 0001334  95.6027 264.5118 15.08845341 45270,6917.864,95.437,540.652,538.806,0.0
52875.0,STARLINK-4193,PAYLOAD,2023-04-07 07:02:11,15.08839539,0.0001315,53.215,125.8495,83.634,276.4801,0.00010563,1.394e-05,0.0,0 STARLINK-4193,1 52875U 22062AX  23097.29319238  .00001394  00000-0  10563-3 0  9992,2 52875  53.2150 125.8495 0001315  83.6340 276.4801 15.08839539 45416,6917.882,95.438,540.656,538.837,0.0
52875.0,STARLINK-4193,PAYLOAD,2023-04-07 08:37:34,15.088404,0.0001327,53.2149,125.552,84.1917,275.9227,0.0001135,1.519e-05,0.0,0 STARLINK-4193,1 52875U 22062AX  23097.35943187  .00001519  00000-0  11350-3 0  9999,2 52875  53.2149 125.5520 0001327  84.1917 275.9227 15.08840400 44930,6917.879,95.438,540.662,538.826,0.0
52875.0,STARLINK-4193,PAYLOAD,2023-04-08 08:28:22,15.08838301,0.0001441,53.217,121.0911,105.2876,254.8276,3.6037e-05,2.86e-06,0.0,0 STARLINK-4193,1 52875U 22062AX  23098.35303338  .00000286  00000-0  36037-4 0  9998,2 52875  53.2170 121.0911 0001441 105.2876 254.8276 15.08838301 45573,6917.886,95.438,540.747,538.754,0.0
52875.0,STARLINK-4193,PAYLOAD,2023-04-09 08:19:09,15.08838988,0.0001355,53.2165,116.6301,102.9303,257.1841,6.822e-05,7.98e-06,0.0,0 STARLINK-4193,1 52875U 22062AX  23099.34663332  .00000798  00000-0  68220-4 0  9998,2 52875  53.2165 116.6301 0001355 102.9303 257.1841 15.08838988 45231,6917.883,95.438,540.686,538.811,0.0
52875.0,STARLINK-4193,PAYLOAD,2023-04-09 17:51:28,15.08837774,0.0001301,53.2164,114.8462,97.3217,262.7923,6.3169e-05,7.18e-06,0.0,0 STARLINK-4193,1 52875U 22062AX  23099.74407473  .00000718  00000-0  63169-4 0  9993,2 52875  53.2164 114.8462 0001301  97.3217 262.7923 15.08837774 45785,6917.887,95.438,540.652,538.852,0.0
52875.0,STARLINK-4193,PAYLOAD,2023-04-10 08:09:56,15.08835015,0.0001332,53.217,112.1701,98.9055,261.2088,3.8286e-05,3.21e-06,0.0,0 STARLINK-4193,1 52875U 22062AX  23100.34023929  .00000321  00000-0  38286-4 0  9994,2 52875  53.2170 112.1701 0001332  98.9055 261.2088 15.08835015 45388,6917.896,95.438,540.682,538.839,0.0
52875.0,STARLINK-4193,PAYLOAD,2023-04-10 17:42:15,15.08837874,0.0001355,53.2174,110.386,89.756,270.3588,6.599e-05,7.62e-06,0.0,0 STARLINK-4193,1 52875U 22062AX  23100.73767804  .00000762  00000-0  65990-4 0  9995,2 52875  53.2174 110.3860 0001355  89.7560 270.3588 15.08837874 45440,6917.887,95.438,540.689,538.815,0.0
52875.0,STARLINK-4193,PAYLOAD,2023-04-11 04:49:57,15.08842276,0.0001349,53.2175,108.3045,90.3248,269.7899,7.8018e-05,9.54e-06,0.0,0 STARLINK-4193,1 52875U 22062AX  23101.20135504  .00000954  00000-0  78018-4 0  9992,2 52875  53.2175 108.3045 0001349  90.3248 269.7899 15.08842276 46009,6917.873,95.437,540.672,538.805,0.0
52875.0,STARLINK-4193,PAYLOAD,2023-04-11 09:36:06,15.08845791,0.0001362,53.2173,107.4122,89.7152,270.3997,0.00010074,1.316e-05,0.0,0 STARLINK-4193,1 52875U 22062AX  23101.40007196  .00001316  00000-0  10074-3 0  9999,2 52875  53.2173 107.4122 0001362  89.7152 270.3997 15.08845791 45544,6917.863,95.437,540.67,538.785,0.0
52875.0,STARLINK-4193,PAYLOAD,2023-04-11 17:33:02,15.08835081,0.0002024,53.2169,105.9259,83.2127,276.9096,1.8853e-05,1.2e-07,0.0,0 STARLINK-4193,1 52875U 22062AX  23101.73128376  .00000012  00000-0  18853-4 0  9995,2 52875  53.2169 105.9259 0002024  83.2127 276.9096 15.08835081 46083,6917.895,95.438,541.161,538.36,0.0
